{"type": "FeatureCollection", "features": [ {"type": "Feature", "properties": {"norad_id": 64902, "name": "CO3D 2", "group": "resource", "lat": -64.44461624978331, "lon": -120.59560527118794, "alt_km": 512.9983544656607, "timestamp": "2025-12-25T03:55:55.964402+00:00", "meta": {"OBJECT_NAME": "CO3D 2", "OBJECT_ID": "2025-156D", "EPOCH": "2025-12-24T20:32:12.517152", "MEAN_MOTION": 15.20196009, "ECCENTRICITY": 7.52e-05, "INCLINATION": 97.4339, "RA_OF_ASC_NODE": 74.9475, "ARG_OF_PERICENTER": 64.6322, "MEAN_ANOMALY": 295.499, "EPHEMERIS_TYPE": 0, "CLASSIFICATION_TYPE": "U", "NORAD_CAT_ID": 64902, "ELEMENT_SET_NO": 999, "REV_AT_EPOCH": 2304, "BSTAR": 0.0002727, "MEAN_MOTION_DOT": 5.839e-05, "MEAN_MOTION_DDOT": 0}, "tle": {"line1": "1 64902U 25156D   25358.85570043  .00005839  00000+0  27270-3 0  9990", "line2": "2 64902  97.4339  74.9475 0000752  64.6322 295.4990 15.20196009 23041"}}, "geometry": {"type": "Point", "coordinates": [-120.59560527118794, -64.44461624978331]}}, {"type": "Feature", "properties": {"norad_id": 64903, "name": "CO3D 1", "group": "resource", "lat": -63.631926465530796, "lon": -120.02056246234172, "alt_km": 513.0869244411624, "timestamp": "2025-12-25T03:55:55.964412+00:00", "meta": {"OBJECT_NAME": "CO3D 1", "OBJECT_ID": "2025-156E", "EPOCH": "2025-12-24T20:32:25.950624", "MEAN_MOTION": 15.20191596, "ECCENTRICITY": 8.79e-05, "INCLINATION": 97.4339, "RA_OF_ASC_NODE": 74.9478, "ARG_OF_PERICENTER": 69.3834, "MEAN_ANOMALY": 290.7495, "EPHEMERIS_TYPE": 0, "CLASSIFICATION_TYPE": "U", "NORAD_CAT_ID": 64903, "ELEMENT_SET_NO": 999, "REV_AT_EPOCH": 2304, "BSTAR": 0.00028026, "MEAN_MOTION_DOT": 6.002e-05, "MEAN_MOTION_DDOT": 0}, "tle": {"line1": "1 64903U 25156E   25358.85585591  .00006002  00000+0  28026-3 0  9998", "line2": "2 64903  97.4339  74.9478 0000879  69.3834 290.7495 15.20191596 23049"}}, "geometry": {"type": "Point", "coordinates": [-120.02056246234172, -63.631926465530796]}}, {"type": "Feature", "properties": {"norad_id": 66514, "name": "SENTINEL-6B", "group": "resource", "lat": 32.68722557025096, "lon": -59.94863183324055, "alt_km": 1338.3584678233856, "timestamp": "2025-12-25T03:55:55.964422+00:00", "meta": {"OBJECT_NAME": "SENTINEL-6B", "OBJECT_ID": "2025-264A", "EPOCH": "2025-12-24T15:56:27.686976", "MEAN_MOTION": 12.80929573, "ECCENTRICITY": 0.0007898, "INCLINATION": 66.0398, "RA_OF_ASC_NODE": 137.6666, "ARG_OF_PERICENTER": 269.9777, "MEAN_ANOMALY": 90.0333, "EPHEMERIS_TYPE": 0, "CLASSIFICATION_TYPE": "U", "NORAD_CAT_ID": 66514, "ELEMENT_SET_NO": 999, "REV_AT_EPOCH": 481, "BSTAR": 6.3146e-05, "MEAN_MOTION_DOT": -4.6e-07, "MEAN_MOTION_DDOT": 0}, "tle": {"line1": "1 66514U 25264A   25358.66420934 -.00000046  00000+0  63146-4 0  9992", "line2": "2 66514  66.0398 137.6666 0007898 269.9777  90.0333 12.80929573  4817"}}, "geometry": {"type": "Point", "coordinates": [-59.94863183324055, 32.68722557025096]}}]}